OBJECT_NAME,OBJECT_ID,EPOCH,MEAN_MOTION,ECCENTRICITY,INCLINATION,RA_OF_ASC_NODE,ARG_OF_PERICENTER,MEAN_ANOMALY,EPHEMERIS_TYPE,CLASSIFICATION_TYPE,NORAD_CAT_ID,ELEMENT_SET_NO,REV_AT_EPOCH,BSTAR,MEAN_MOTION_DOT,MEAN_MOTION_DDOT
STARLINK-36384,2026-018J,2026-06-08T17:51:46.485792,15.33447160,.0000363,97.2838,224.7440,120.0617,240.0662,0,U,67597,999,2129,.69231E-3,.22343E-3,0
STARLINK-36358,2026-018K,2026-06-08T17:08:42.406080,15.33449003,.0000414,97.2844,224.6287,157.1088,203.0173,0,U,67598,999,2128,.66399E-3,.21424E-3,0
STARLINK-36582,2026-018L,2026-06-08T18:19:10.764192,15.33454454,.0000319,97.2856,224.7146,205.4299,154.6928,0,U,67599,999,2134,.76568E-3,.24732E-3,0
STARLINK-36640,2026-018M,2026-06-08T17:12:37.615392,15.33447784,.0000142,97.2870,224.6288,200.3029,159.8208,0,U,67600,999,2128,.96769E-3,.31298E-3,0
STARLINK-36635,2026-018N,2026-06-08T17:59:36.265056,15.33448996,.000013,97.2841,224.7351,73.8522,286.2735,0,U,67601,999,2129,.57493E-3,.18533E-3,0
STARLINK-36631,2026-018P,2026-06-08T17:47:51.627264,15.33457948,.0000489,97.2846,224.7491,85.3038,274.8260,0,U,67602,999,2129,.83762E-3,.27074E-3,0
STARLINK-36626,2026-018Q,2026-06-08T18:11:20.938272,15.33456917,.0000299,97.2859,224.7251,221.4645,138.6575,0,U,67603,999,2129,.93612E-3,.30279E-3,0
STARLINK-36605,2026-018R,2026-06-08T17:00:52.714944,15.33445070,.0001027,97.2854,224.6370,95.5672,264.5687,0,U,67604,999,2128,.70665E-3,.22807E-3,0
STARLINK-36281,2026-018S,2026-06-08T17:28:16.996800,15.33460604,.0000438,97.2856,224.6136,285.4591,74.6603,0,U,67605,999,2128,.64335E-3,.20762E-3,0
STARLINK-35843,2026-018T,2026-06-08T18:27:00.386208,15.33465208,.0000645,97.2880,224.7070,211.7369,148.3835,0,U,67606,999,2129,.75973E-3,.24547E-3,0
STARLINK-36351,2026-018U,2026-06-08T18:07:25.974336,15.33454907,.0000534,97.2850,224.7276,232.4739,127.6456,0,U,67607,999,2129,.77705E-3,.25102E-3,0
STARLINK-36411,2026-018V,2026-06-08T17:32:11.342976,15.33452168,.000056,97.2862,224.6105,100.0619,260.0687,0,U,67608,999,2128,.8102E-3,.26178E-3,0
STARLINK-36312,2026-018W,2026-06-08T18:03:31.150368,15.33449507,.0000301,97.2822,224.7324,144.4373,215.6890,0,U,67609,999,2129,.6464E-3,.20854E-3,0
STARLINK-36387,2026-018X,2026-06-08T18:34:52.544064,15.75187759,.0002059,97.2848,230.1990,76.8254,283.3241,0,U,67610,999,2165,.15016E-2,.229957E-2,0
STARLINK-36636,2026-018Y,2026-06-08T17:40:01.530048,15.33453230,.0001126,97.2834,224.6023,261.7494,98.3621,0,U,67611,999,2128,.77361E-3,.24989E-3,0
STARLINK-36407,2026-018Z,2026-06-08T17:55:41.301120,15.33457160,.0000319,97.2810,224.7401,103.7223,256.4055,0,U,67612,999,2134,.85853E-3,.27754E-3,0
STARLINK-36597,2026-018AA,2026-06-08T17:20:27.322080,15.33454248,.0000448,97.2828,224.6182,354.6381,5.4857,0,U,67613,999,2128,.63395E-3,.20452E-3,0
NEONSAT-1A,2026-019A,2026-06-08T19:28:33.027168,15.08382419,.0012341,97.4259,280.2580,216.1981,143.8413,0,U,67614,999,1955,.2349E-3,.3596E-4,0
STARLINK-36548,2026-020A,2026-06-08T20:00:03.000384,15.27570623,.0001632,43.0012,345.3658,284.4828,281.0659,0,U,67617,999,575,.68662E-3,.18675E-3,0
STARLINK-36601,2026-020B,2026-06-08T18:45:56.992032,15.27600386,.0004032,43.0029,345.4490,279.1148,80.9248,0,U,67618,999,2004,.89922E-3,.24584E-3,0
STARLINK-36119,2026-020C,2026-06-08T18:57:03.470400,15.27590106,.0001368,43.0016,345.5188,276.7347,83.3349,0,U,67619,999,2004,.62868E-3,.17083E-3,0
STARLINK-36607,2026-020D,2026-06-08T19:30:08.201952,15.27604574,.0003993,42.9885,344.8126,276.2404,83.7992,0,U,67620,999,2005,.72794E-3,.19841E-3,0
STARLINK-36615,2026-020E,2026-06-08T19:09:59.962752,15.27584356,.0000428,43.0018,345.5718,182.6611,177.4238,0,U,67621,999,2004,.98808E-3,.27031E-3,0
STARLINK-36614,2026-020F,2026-06-08T18:42:15.103008,15.27588876,.0004508,43.0032,345.4394,271.1402,88.8933,0,U,67622,999,2004,.75184E-3,.20494E-3,0
STARLINK-36600,2026-020G,2026-06-08T18:51:30.487392,15.27589577,.0001198,43.0028,345.4947,278.0024,82.0691,0,U,67623,999,2004,.67153E-3,.18268E-3,0
STARLINK-36439,2026-020H,2026-06-06T16:14:26.028960,15.27619581,.00009977,43.0010,357.1848,303.7213,56.3544,0,U,67624,999,1972,.10130131E-2,.27752E-3,0
STARLINK-36438,2026-020J,2026-06-08T00:00:04.000320,15.27546524,.00022907,43.0035,349.8112,281.4659,122.1620,0,U,67625,999,583,.2618076E-2,.7242E-3,0
STARLINK-36436,2026-020K,2026-06-08T19:41:15.895104,15.27589469,.000068,43.0043,344.8732,98.9670,261.1259,0,U,67626,999,2005,.7773E-3,.21195E-3,0
STARLINK-36502,2026-020L,2026-06-06T06:43:57.926784,15.27613218,.00012533,43.0061,359.3673,267.7309,92.3400,0,U,67627,999,1966,.10802558E-2,.29614E-3,0
STARLINK-36532,2026-020M,2026-06-08T19:48:40.641696,15.27580920,.0000793,43.0025,344.9097,131.7869,228.3051,0,U,67628,999,2005,.8586E-3,.2344E-3,0
