STARLINK-36384          
1 67597U 26018J   26159.74428803  .00022343  00000+0  69231-3 0  9997
2 67597  97.2838 224.7440 0000363 120.0617 240.0662 15.33447160 21293
STARLINK-36358          
1 67598U 26018K   26159.71437970  .00021424  00000+0  66399-3 0  9991
2 67598  97.2844 224.6287 0000414 157.1088 203.0173 15.33449003 21282
STARLINK-36582          
1 67599U 26018L   26159.76331903  .00024732  00000+0  76568-3 0  9990
2 67599  97.2856 224.7146 0000319 205.4299 154.6928 15.33454454 21348
STARLINK-36640          
1 67600U 26018M   26159.71710203  .00031298  00000+0  96769-3 0  9992
2 67600  97.2870 224.6288 0000142 200.3029 159.8208 15.33447784 21281
STARLINK-36635          
1 67601U 26018N   26159.74972529  .00018533  00000+0  57493-3 0  9995
2 67601  97.2841 224.7351 0000130  73.8522 286.2735 15.33448996 21297
STARLINK-36631          
1 67602U 26018P   26159.74156976  .00027074  00000+0  83762-3 0  9994
2 67602  97.2846 224.7491 0000489  85.3038 274.8260 15.33457948 21298
STARLINK-36626          
1 67603U 26018Q   26159.75788123  .00030279  00000+0  93612-3 0  9997
2 67603  97.2859 224.7251 0000299 221.4645 138.6575 15.33456917 21294
STARLINK-36605          
1 67604U 26018R   26159.70894346  .00022807  00000+0  70665-3 0  9999
2 67604  97.2854 224.6370 0001027  95.5672 264.5687 15.33445070 21281
STARLINK-36281          
1 67605U 26018S   26159.72797450  .00020762  00000+0  64335-3 0  9995
2 67605  97.2856 224.6136 0000438 285.4591  74.6603 15.33460604 21287
STARLINK-35843          
1 67606U 26018T   26159.76875447  .00024547  00000+0  75973-3 0  9998
2 67606  97.2880 224.7070 0000645 211.7369 148.3835 15.33465208 21290
STARLINK-36351          
1 67607U 26018U   26159.75516174  .00025102  00000+0  77705-3 0  9990
2 67607  97.2850 224.7276 0000534 232.4739 127.6456 15.33454907 21297
STARLINK-36411          
1 67608U 26018V   26159.73068684  .00026178  00000+0  81020-3 0  9996
2 67608  97.2862 224.6105 0000560 100.0619 260.0687 15.33452168 21281
STARLINK-36312          
1 67609U 26018W   26159.75244387  .00020854  00000+0  64640-3 0  9999
2 67609  97.2822 224.7324 0000301 144.4373 215.6890 15.33449507 21290
STARLINK-36387          
1 67610U 26018X   26159.77421926  .00229957  00000+0  15016-2 0  9996
2 67610  97.2848 230.1990 0002059  76.8254 283.3241 15.75187759 21654
STARLINK-36636          
1 67611U 26018Y   26159.73612882  .00024989  00000+0  77361-3 0  9996
2 67611  97.2834 224.6023 0001126 261.7494  98.3621 15.33453230 21289
STARLINK-36407          
1 67612U 26018Z   26159.74700580  .00027754  00000+0  85853-3 0  9999
2 67612  97.2810 224.7401 0000319 103.7223 256.4055 15.33457160 21344
STARLINK-36597          
1 67613U 26018AA  26159.72253845  .00020452  00000+0  63395-3 0  9990
2 67613  97.2828 224.6182 0000448 354.6381   5.4857 15.33454248 21283
NEONSAT-1A              
1 67614U 26019A   26159.81149337  .00003596  00000+0  23490-3 0  9994
2 67614  97.4259 280.2580 0012341 216.1981 143.8413 15.08382419 19551
STARLINK-36548          
1 67617U 26020A   26159.83336806  .00018675  00000+0  68662-3 0  9994
2 67617  43.0012 345.3658 0001632 284.4828 281.0659 15.27570623  5757
STARLINK-36601          
1 67618U 26020B   26159.78190963  .00024584  00000+0  89922-3 0  9999
2 67618  43.0029 345.4490 0004032 279.1148  80.9248 15.27600386 20043
STARLINK-36119          
1 67619U 26020C   26159.78962350  .00017083  00000+0  62868-3 0  9993
2 67619  43.0016 345.5188 0001368 276.7347  83.3349 15.27590106 20045
STARLINK-36607          
1 67620U 26020D   26159.81259493  .00019841  00000+0  72794-3 0  9999
2 67620  42.9885 344.8126 0003993 276.2404  83.7992 15.27604574 20052
STARLINK-36615          
1 67621U 26020E   26159.79861068  .00027031  00000+0  98808-3 0  9998
2 67621  43.0018 345.5718 0000428 182.6611 177.4238 15.27584356 20046
STARLINK-36614          
1 67622U 26020F   26159.77934147  .00020494  00000+0  75184-3 0  9994
2 67622  43.0032 345.4394 0004508 271.1402  88.8933 15.27588876 20045
STARLINK-36600          
1 67623U 26020G   26159.78576953  .00018268  00000+0  67153-3 0  9996
2 67623  43.0028 345.4947 0001198 278.0024  82.0691 15.27589577 20049
STARLINK-36439          
1 67624U 26020H   26157.67669015  .00027752  00000+0  10130-2 0  9995
2 67624  43.0010 357.1848 0000997 303.7213  56.3544 15.27619581 19726
STARLINK-36438          
1 67625U 26020J   26159.00004630  .00072420  00000+0  26181-2 0  9996
2 67625  43.0035 349.8112 0002290 281.4659 122.1620 15.27546524  5830
STARLINK-36436          
1 67626U 26020K   26159.82032286  .00021195  00000+0  77730-3 0  9995
2 67626  43.0043 344.8732 0000680  98.9670 261.1259 15.27589469 20056
STARLINK-36502          
1 67627U 26020L   26157.28053156  .00029614  00000+0  10803-2 0  9994
2 67627  43.0061 359.3673 0001253 267.7309  92.3400 15.27613218 19661
STARLINK-36532          
1 67628U 26020M   26159.82547039  .00023440  00000+0  85860-3 0  9992
2 67628  43.0025 344.9097 0000793 131.7869 228.3051 15.27580920 20052
